STARLINK-33921          
1 65934U 25225AA  25310.69228299  .00070229  00000+0  12577-2 0  9994
2 65934  53.1600  18.6213 0001183  84.0636 276.0508 15.49347447  4667
STARLINK-35155          
1 65935U 25225AB  25310.75645563  .00079703  00000+0  14254-2 0  9999
2 65935  53.1601  18.3105 0002675  57.2060 302.9207 15.49330678  4670
STARLINK-35161          
1 65936U 25225AC  25310.69125763  .00068224  00000+0  12223-2 0  9998
2 65936  53.1600  18.6148 0001161  88.9886 271.1257 15.49350300  4661
STARLINK-35473          
1 65937U 25225AD  25310.81992943  .00079565  00000+0  14230-2 0  9995
2 65937  53.1599  17.9964 0001311  74.0555 286.0599 15.49331529  4681
2025-226A               
1 65938U 25226A   25311.28093582  .00013082  00000+0  76291-3 0  9998
2 65938  97.6665  25.4947 0015142 186.7255 173.3775 15.12001352  4119
2025-226B               
1 65939U 25226B   25311.31316796  .00008019  00000+0  49755-3 0  9997
2 65939  97.6616  25.4382 0021242 190.3383 169.7412 15.09797697  4106
2025-226C               
1 65940U 25226C   25311.28294655  .00018223  00000+0  10638-2 0  9999
2 65940  97.6573  25.4618 0015102 184.7306 175.3784 15.11889902  4101
YOTSUBA-KULOVER         
1 65941U 98067XN  25311.27612709  .00062620  00000+0  95170-3 0  9991
2 65941  51.6324 317.4779 0002667  18.7643 341.3445 15.53953751  4334
BOTAN                   
1 65942U 98067XP  25311.26661794  .00083017  00000+0  12070-2 0  9999
2 65942  51.6320 317.4148 0004757  34.2370 325.8927 15.55038987  4332
E-KAGAKU-1              
1 65943U 98067XQ  25311.27568456  .00061564  00000+0  93570-3 0  9990
2 65943  51.6332 317.4755 0004521  22.2723 337.8463 15.53952943  4331
2025-226D               
1 65944U 25226D   25310.37533782  .02250373  00000+0  37671-1 0  9990
2 65944  97.6537  25.1428 0019485 276.7437  83.1595 15.48107374  3994
SHIYAN-31               
1 65945U 25227A   25311.27441694  .00014325  00000+0  65343-3 0  9994
2 65945  80.0056  69.0391 0011586 186.8164 173.2908 15.20477530  3785
